CCSDS_OMM_VERS = 2.0
CREATION_DATE  = 
ORIGINATOR     = 

OBJECT_NAME    = KUIPER-00136
OBJECT_ID      = 2025-228R
CENTER_NAME    = EARTH
REF_FRAME      = TEME
TIME_SYSTEM    = UTC
MEAN_ELEMENT_THEORY = SGP/SGP4

EPOCH          = 2025-10-31T06:29:10.996224
MEAN_MOTION    = 15.34846002
ECCENTRICITY   = .00061208
INCLINATION    = 51.8791
RA_OF_ASC_NODE = 225.1596
ARG_OF_PERICENTER = 193.6122
MEAN_ANOMALY   = 166.4699

EPHEMERIS_TYPE = 0
CLASSIFICATION_TYPE = U
NORAD_CAT_ID   = 65962
ELEMENT_SET_NO = 999
REV_AT_EPOCH   = 389
BSTAR          = .12503494E-2
MEAN_MOTION_DOT = .42775E-3
MEAN_MOTION_DDOT = 0

CCSDS_OMM_VERS = 2.0
CREATION_DATE  = 
ORIGINATOR     = 

OBJECT_NAME    = KUIPER-00137
OBJECT_ID      = 2025-228S
CENTER_NAME    = EARTH
REF_FRAME      = TEME
TIME_SYSTEM    = UTC
MEAN_ELEMENT_THEORY = SGP/SGP4

EPOCH          = 2025-10-31T05:01:17.954976
MEAN_MOTION    = 15.34449519
ECCENTRICITY   = .0005136
INCLINATION    = 51.8792
RA_OF_ASC_NODE = 225.5010
ARG_OF_PERICENTER = 205.1524
MEAN_ANOMALY   = 154.9212

EPHEMERIS_TYPE = 0
CLASSIFICATION_TYPE = U
NORAD_CAT_ID   = 65963
ELEMENT_SET_NO = 999
REV_AT_EPOCH   = 388
BSTAR          = .51368748E-3
MEAN_MOTION_DOT = .17065E-3
MEAN_MOTION_DDOT = 0

CCSDS_OMM_VERS = 2.0
CREATION_DATE  = 
ORIGINATOR     = 

OBJECT_NAME    = KUIPER-00138
OBJECT_ID      = 2025-228T
CENTER_NAME    = EARTH
REF_FRAME      = TEME
TIME_SYSTEM    = UTC
MEAN_ELEMENT_THEORY = SGP/SGP4

EPOCH          = 2025-10-31T06:37:52.264704
MEAN_MOTION    = 15.34591270
ECCENTRICITY   = .00069947
INCLINATION    = 51.8784
RA_OF_ASC_NODE = 225.1943
ARG_OF_PERICENTER = 229.0220
MEAN_ANOMALY   = 131.0161

EPHEMERIS_TYPE = 0
CLASSIFICATION_TYPE = U
NORAD_CAT_ID   = 65964
ELEMENT_SET_NO = 999
REV_AT_EPOCH   = 389
BSTAR          = .11311972E-1
MEAN_MOTION_DOT = .406099E-2
MEAN_MOTION_DDOT = 0

CCSDS_OMM_VERS = 2.0
CREATION_DATE  = 
ORIGINATOR     = 

OBJECT_NAME    = KUIPER-00140
OBJECT_ID      = 2025-228U
CENTER_NAME    = EARTH
REF_FRAME      = TEME
TIME_SYSTEM    = UTC
MEAN_ELEMENT_THEORY = SGP/SGP4

EPOCH          = 2025-10-31T01:57:39.385440
MEAN_MOTION    = 15.34256564
ECCENTRICITY   = .00053492
INCLINATION    = 51.8794
RA_OF_ASC_NODE = 226.1440
ARG_OF_PERICENTER = 222.6354
MEAN_ANOMALY   = 137.4217

EPHEMERIS_TYPE = 0
CLASSIFICATION_TYPE = U
NORAD_CAT_ID   = 65965
ELEMENT_SET_NO = 999
REV_AT_EPOCH   = 386
BSTAR          = .11197528E-2
MEAN_MOTION_DOT = .3752E-3
MEAN_MOTION_DDOT = 0

CCSDS_OMM_VERS = 2.0
CREATION_DATE  = 
ORIGINATOR     = 

OBJECT_NAME    = KUIPER-00141
OBJECT_ID      = 2025-228V
CENTER_NAME    = EARTH
REF_FRAME      = TEME
TIME_SYSTEM    = UTC
MEAN_ELEMENT_THEORY = SGP/SGP4

EPOCH          = 2025-10-31T06:32:12.754176
MEAN_MOTION    = 15.34662407
ECCENTRICITY   = .00059157
INCLINATION    = 51.8784
RA_OF_ASC_NODE = 225.1675
ARG_OF_PERICENTER = 196.0301
MEAN_ANOMALY   = 164.0499

EPHEMERIS_TYPE = 0
CLASSIFICATION_TYPE = U
NORAD_CAT_ID   = 65966
ELEMENT_SET_NO = 999
REV_AT_EPOCH   = 389
BSTAR          = .93507663E-3
MEAN_MOTION_DOT = .31657E-3
MEAN_MOTION_DDOT = 0

CCSDS_OMM_VERS = 2.0
CREATION_DATE  = 
ORIGINATOR     = 

OBJECT_NAME    = KUIPER-00146
OBJECT_ID      = 2025-228W
CENTER_NAME    = EARTH
REF_FRAME      = TEME
TIME_SYSTEM    = UTC
MEAN_ELEMENT_THEORY = SGP/SGP4

EPOCH          = 2025-10-31T06:32:46.183200
MEAN_MOTION    = 15.34628212
ECCENTRICITY   = .00059272
INCLINATION    = 51.8792
RA_OF_ASC_NODE = 225.1772
ARG_OF_PERICENTER = 198.0319
MEAN_ANOMALY   = 162.0457

EPHEMERIS_TYPE = 0
CLASSIFICATION_TYPE = U
NORAD_CAT_ID   = 65967
ELEMENT_SET_NO = 999
REV_AT_EPOCH   = 389
BSTAR          = .91780142E-3
MEAN_MOTION_DOT = .31029E-3
MEAN_MOTION_DDOT = 0

CCSDS_OMM_VERS = 2.0
CREATION_DATE  = 
ORIGINATOR     = 

OBJECT_NAME    = KUIPER-00149
OBJECT_ID      = 2025-228X
CENTER_NAME    = EARTH
REF_FRAME      = TEME
TIME_SYSTEM    = UTC
MEAN_ELEMENT_THEORY = SGP/SGP4

EPOCH          = 2025-10-31T03:22:15.629088
MEAN_MOTION    = 15.34804486
ECCENTRICITY   = .00057365
INCLINATION    = 51.8789
RA_OF_ASC_NODE = 225.7860
ARG_OF_PERICENTER = 196.1542
MEAN_ANOMALY   = 163.9262

EPHEMERIS_TYPE = 0
CLASSIFICATION_TYPE = U
NORAD_CAT_ID   = 65968
ELEMENT_SET_NO = 999
REV_AT_EPOCH   = 387
BSTAR          = .11594608E-2
MEAN_MOTION_DOT = .39565E-3
MEAN_MOTION_DDOT = 0

CCSDS_OMM_VERS = 2.0
CREATION_DATE  = 
ORIGINATOR     = 

OBJECT_NAME    = KUIPER-00154
OBJECT_ID      = 2025-228Y
CENTER_NAME    = EARTH
REF_FRAME      = TEME
TIME_SYSTEM    = UTC
MEAN_ELEMENT_THEORY = SGP/SGP4

EPOCH          = 2025-10-31T06:28:40.181664
MEAN_MOTION    = 15.34875742
ECCENTRICITY   = .00060379
INCLINATION    = 51.8784
RA_OF_ASC_NODE = 225.1531
ARG_OF_PERICENTER = 193.8804
MEAN_ANOMALY   = 166.2016

EPHEMERIS_TYPE = 0
CLASSIFICATION_TYPE = U
NORAD_CAT_ID   = 65969
ELEMENT_SET_NO = 999
REV_AT_EPOCH   = 389
BSTAR          = .10108877E-2
MEAN_MOTION_DOT = .34504E-3
MEAN_MOTION_DDOT = 0

CCSDS_OMM_VERS = 2.0
CREATION_DATE  = 
ORIGINATOR     = 

OBJECT_NAME    = KUIPER-00157
OBJECT_ID      = 2025-228Z
CENTER_NAME    = EARTH
REF_FRAME      = TEME
TIME_SYSTEM    = UTC
MEAN_ELEMENT_THEORY = SGP/SGP4

EPOCH          = 2025-10-31T05:02:48.014016
MEAN_MOTION    = 15.34413492
ECCENTRICITY   = .00057914
INCLINATION    = 51.8793
RA_OF_ASC_NODE = 225.5070
ARG_OF_PERICENTER = 210.8540
MEAN_ANOMALY   = 149.2106

EPHEMERIS_TYPE = 0
CLASSIFICATION_TYPE = U
NORAD_CAT_ID   = 65970
ELEMENT_SET_NO = 999
REV_AT_EPOCH   = 388
BSTAR          = .62980266E-3
MEAN_MOTION_DOT = .20998E-3
MEAN_MOTION_DDOT = 0

CCSDS_OMM_VERS = 2.0
CREATION_DATE  = 
ORIGINATOR     = 

OBJECT_NAME    = STRIX-5
OBJECT_ID      = 2025-229A
CENTER_NAME    = EARTH
REF_FRAME      = TEME
TIME_SYSTEM    = UTC
MEAN_ELEMENT_THEORY = SGP/SGP4

EPOCH          = 2025-10-31T05:00:30.533472
MEAN_MOTION    = 15.01692552
ECCENTRICITY   = .0039673
INCLINATION    = 41.9263
RA_OF_ASC_NODE = 114.7660
ARG_OF_PERICENTER = 352.5665
MEAN_ANOMALY   = 7.4568

EPHEMERIS_TYPE = 0
CLASSIFICATION_TYPE = U
NORAD_CAT_ID   = 65971
ELEMENT_SET_NO = 999
REV_AT_EPOCH   = 251
BSTAR          = .45099896E-3
MEAN_MOTION_DOT = .5873E-4
MEAN_MOTION_DDOT = 0

CCSDS_OMM_VERS = 2.0
CREATION_DATE  = 
ORIGINATOR     = 

OBJECT_NAME    = ELECTRON R/B
OBJECT_ID      = 2025-229B
CENTER_NAME    = EARTH
REF_FRAME      = TEME
TIME_SYSTEM    = UTC
MEAN_ELEMENT_THEORY = SGP/SGP4

EPOCH          = 2025-10-31T05:00:30.555072
MEAN_MOTION    = 15.01691508
ECCENTRICITY   = .00397063
INCLINATION    = 41.9267
RA_OF_ASC_NODE = 114.7660
ARG_OF_PERICENTER = 352.5634
MEAN_ANOMALY   = 7.4599

EPHEMERIS_TYPE = 0
CLASSIFICATION_TYPE = U
NORAD_CAT_ID   = 65972
ELEMENT_SET_NO = 999
REV_AT_EPOCH   = 249
BSTAR          = .43250234E-3
MEAN_MOTION_DOT = .5624E-4
MEAN_MOTION_DDOT = 0

CCSDS_OMM_VERS = 2.0
CREATION_DATE  = 
ORIGINATOR     = 

OBJECT_NAME    = ELECTRON KICK STAGE R/B
OBJECT_ID      = 2025-229C
CENTER_NAME    = EARTH
REF_FRAME      = TEME
TIME_SYSTEM    = UTC
MEAN_ELEMENT_THEORY = SGP/SGP4

EPOCH          = 2025-10-31T04:47:15.951552
MEAN_MOTION    = 15.02568636
ECCENTRICITY   = .00407829
INCLINATION    = 41.9824
RA_OF_ASC_NODE = 114.7914
ARG_OF_PERICENTER = 352.6362
MEAN_ANOMALY   = 7.3861

EPHEMERIS_TYPE = 0
CLASSIFICATION_TYPE = U
NORAD_CAT_ID   = 65973
ELEMENT_SET_NO = 999
REV_AT_EPOCH   = 248
BSTAR          = .660354E-3
MEAN_MOTION_DOT = .8909E-4
MEAN_MOTION_DDOT = 0

