KUIPER-00136            
1 65962U 25228R   25304.27026616  .00042775  00000+0  12503-2 0  9998
2 65962  51.8791 225.1596 0006120 193.6122 166.4699 15.34846002  3898
KUIPER-00137            
1 65963U 25228S   25304.20923559  .00017065  00000+0  51369-3 0  9992
2 65963  51.8792 225.5010 0005136 205.1524 154.9212 15.34449519  3880
KUIPER-00138            
1 65964U 25228T   25304.27629936  .00406099  00000+0  11312-1 0  9993
2 65964  51.8784 225.1943 0006994 229.0220 131.0161 15.34591270  3896
KUIPER-00140            
1 65965U 25228U   25304.08170585  .00037520  00000+0  11198-2 0  9996
2 65965  51.8794 226.1440 0005349 222.6354 137.4217 15.34256564  3864
KUIPER-00141            
1 65966U 25228V   25304.27236984  .00031657  00000+0  93508-3 0  9995
2 65966  51.8784 225.1675 0005915 196.0301 164.0499 15.34662407  3896
KUIPER-00146            
1 65967U 25228W   25304.27275675  .00031029  00000+0  91780-3 0  9999
2 65967  51.8792 225.1772 0005927 198.0319 162.0457 15.34628212  3896
KUIPER-00149            
1 65968U 25228X   25304.14045867  .00039565  00000+0  11595-2 0  9992
2 65968  51.8789 225.7860 0005736 196.1542 163.9262 15.34804486  3873
KUIPER-00154            
1 65969U 25228Y   25304.26990951  .00034504  00000+0  10109-2 0  9997
2 65969  51.8784 225.1531 0006037 193.8804 166.2016 15.34875742  3896
KUIPER-00157            
1 65970U 25228Z   25304.21027794  .00020998  00000+0  62980-3 0  9997
2 65970  51.8793 225.5070 0005791 210.8540 149.2106 15.34413492  3883
STRIX-5                 
1 65971U 25229A   25304.20868673  .00005873  00000+0  45100-3 0  9997
2 65971  41.9263 114.7660 0039673 352.5665   7.4568 15.01692552  2514
ELECTRON R/B            
1 65972U 25229B   25304.20868698  .00005624  00000+0  43250-3 0  9993
2 65972  41.9267 114.7660 0039706 352.5634   7.4599 15.01691508  2493
ELECTRON KICK STAGE R/B 
1 65973U 25229C   25304.19949018  .00008909  00000+0  66035-3 0  9993
2 65973  41.9824 114.7914 0040782 352.6362   7.3861 15.02568636  2486
